{
  "type": "FeatureCollection",
  "features": [
    {
      "type": "Feature",
      "properties": {
        "norad_id": 43603,
        "name": "BEIDOU-3 M11 (C25)",
        "group": "beidou",
        "lat": 22.744311849177215,
        "lon": -9.947554348345296,
        "alt_km": 21532.352864691882,
        "timestamp": "2025-12-02T17:49:12.293200+00:00",
        "meta_object_name": "BEIDOU-3 M11 (C25)",
        "meta_object_id": "2018-067B",
        "meta_epoch": "2025-12-01T23:30:51.046272",
        "meta_mean_motion": 1.86227122,
        "meta_eccentricity": 0.0005564,
        "meta_inclination": 54.1806,
        "meta_ra_of_asc_node": 187.6926,
        "meta_arg_of_pericenter": 35.9792,
        "meta_mean_anomaly": 324.1526,
        "meta_ephemeris_type": 0,
        "meta_classification_type": "U",
        "meta_norad_cat_id": 43603,
        "meta_element_set_no": 999,
        "meta_rev_at_epoch": 4947,
        "meta_bstar": 0,
        "meta_mean_motion_dot": 1.23e-06,
        "meta_mean_motion_ddot": 0,
        "tle_line1": "1 43603U 18067B   25335.97975748  .00000123  00000+0  00000+0 0  9996",
        "tle_line2": "2 43603  54.1806 187.6926 0005564  35.9792 324.1526  1.86227122 49474"
      },
      "geometry": {
        "type": "Point",
        "coordinates": [
          -9.947554348345296,
          22.744311849177215
        ]
      }
    },
    {
      "type": "Feature",
      "properties": {
        "norad_id": 43622,
        "name": "BEIDOU-3 M13 (C32)",
        "group": "beidou",
        "lat": -0.39052627433885584,
        "lon": -110.59021204629994,
        "alt_km": 21535.836433265235,
        "timestamp": "2025-12-02T17:49:12.293211+00:00",
        "meta_object_name": "BEIDOU-3 M13 (C32)",
        "meta_object_id": "2018-072A",
        "meta_epoch": "2025-12-01T22:28:14.583360",
        "meta_mean_motion": 1.8623073,
        "meta_eccentricity": 0.00055911,
        "meta_inclination": 56.4497,
        "meta_ra_of_asc_node": 69.1783,
        "meta_arg_of_pericenter": 298.7186,
        "meta_mean_anomaly": 61.2282,
        "meta_ephemeris_type": 0,
        "meta_classification_type": "U",
        "meta_norad_cat_id": 43622,
        "meta_element_set_no": 999,
        "meta_rev_at_epoch": 4898,
        "meta_bstar": 0,
        "meta_mean_motion_dot": -4.4e-07,
        "meta_mean_motion_ddot": 0,
        "tle_line1": "1 43622U 18072A   25335.93627990 -.00000044  00000+0  00000+0 0  9995",
        "tle_line2": "2 43622  56.4497  69.1783 0005591 298.7186  61.2282  1.86230730 48989"
      },
      "geometry": {
        "type": "Point",
        "coordinates": [
          -110.59021204629994,
          -0.39052627433885584
        ]
      }
    },
    {
      "type": "Feature",
      "properties": {
        "norad_id": 43623,
        "name": "BEIDOU-3 M14 (C33)",
        "group": "beidou",
        "lat": -56.46728938057583,
        "lon": -19.57674437115674,
        "alt_km": 21530.504900618653,
        "timestamp": "2025-12-02T17:49:12.293223+00:00",
        "meta_object_name": "BEIDOU-3 M14 (C33)",
        "meta_object_id": "2018-072B",
        "meta_epoch": "2025-12-01T19:14:30.937344",
        "meta_mean_motion": 1.86230707,
        "meta_eccentricity": 0.0003049,
        "meta_inclination": 56.4513,
        "meta_ra_of_asc_node": 69.1766,
        "meta_arg_of_pericenter": 335.7773,
        "meta_mean_anomaly": 24.2115,
        "meta_ephemeris_type": 0,
        "meta_classification_type": "U",
        "meta_norad_cat_id": 43623,
        "meta_element_set_no": 999,
        "meta_rev_at_epoch": 4897,
        "meta_bstar": 0,
        "meta_mean_motion_dot": -4.3e-07,
        "meta_mean_motion_ddot": 0,
        "tle_line1": "1 43623U 18072B   25335.80174696 -.00000043  00000+0  00000+0 0  9991",
        "tle_line2": "2 43623  56.4513  69.1766 0003049 335.7773  24.2115  1.86230707 48977"
      },
      "geometry": {
        "type": "Point",
        "coordinates": [
          -19.57674437115674,
          -56.46728938057583
        ]
      }
    },
    {
      "type": "Feature",
      "properties": {
        "norad_id": 43647,
        "name": "BEIDOU-3 M16 (C35)",
        "group": "beidou",
        "lat": 12.184211796011159,
        "lon": 117.91316807939702,
        "alt_km": 21542.714836933275,
        "timestamp": "2025-12-02T17:49:12.293234+00:00",
        "meta_object_name": "BEIDOU-3 M16 (C35)",
        "meta_object_id": "2018-078A",
        "meta_epoch": "2025-12-01T23:02:01.408992",
        "meta_mean_motion": 1.86232129,
        "meta_eccentricity": 0.00069466,
        "meta_inclination": 54.272,
        "meta_ra_of_asc_node": 306.8982,
        "meta_arg_of_pericenter": 18.3506,
        "meta_mean_anomaly": 341.6639,
        "meta_ephemeris_type": 0,
        "meta_classification_type": "U",
        "meta_norad_cat_id": 43647,
        "meta_element_set_no": 999,
        "meta_rev_at_epoch": 4848,
        "meta_bstar": 0,
        "meta_mean_motion_dot": -6.1e-07,
        "meta_mean_motion_ddot": 0,
        "tle_line1": "1 43647U 18078A   25335.95973853 -.00000061  00000+0  00000+0 0  9991",
        "tle_line2": "2 43647  54.2720 306.8982 0006946  18.3506 341.6639  1.86232129 48480"
      },
      "geometry": {
        "type": "Point",
        "coordinates": [
          117.91316807939702,
          12.184211796011159
        ]
      }
    },
    {
      "type": "Feature",
      "properties": {
        "norad_id": 43648,
        "name": "BEIDOU-3 M15 (C34)",
        "group": "beidou",
        "lat": 52.62298735606563,
        "lon": 17.24888828644798,
        "alt_km": 21516.977202637503,
        "timestamp": "2025-12-02T17:49:12.293245+00:00",
        "meta_object_name": "BEIDOU-3 M15 (C34)",
        "meta_object_id": "2018-078B",
        "meta_epoch": "2025-12-01T00:21:40.976640",
        "meta_mean_motion": 1.86232,
        "meta_eccentricity": 0.0003569,
        "meta_inclination": 54.2686,
        "meta_ra_of_asc_node": 306.9322,
        "meta_arg_of_pericenter": 17.0419,
        "meta_mean_anomaly": 342.9634,
        "meta_ephemeris_type": 0,
        "meta_classification_type": "U",
        "meta_norad_cat_id": 43648,
        "meta_element_set_no": 999,
        "meta_rev_at_epoch": 4848,
        "meta_bstar": 0,
        "meta_mean_motion_dot": -5.6e-07,
        "meta_mean_motion_ddot": 0,
        "tle_line1": "1 43648U 18078B   25335.01505760 -.00000056  00000+0  00000+0 0  9991",
        "tle_line2": "2 43648  54.2686 306.9322 0003569  17.0419 342.9634  1.86232000 48485"
      },
      "geometry": {
        "type": "Point",
        "coordinates": [
          17.24888828644798,
          52.62298735606563
        ]
      }
    },
    {
      "type": "Feature",
      "properties": {
        "norad_id": 43683,
        "name": "BEIDOU-3 G1 (C59)",
        "group": "beidou",
        "lat": 0.713553572065388,
        "lon": 119.1173340233343,
        "alt_km": 35779.22522391931,
        "timestamp": "2025-12-02T17:49:12.293257+00:00",
        "meta_object_name": "BEIDOU-3 G1 (C59)",
        "meta_object_id": "2018-085A",
        "meta_epoch": "2025-12-02T07:36:08.057952",
        "meta_mean_motion": 1.00274107,
        "meta_eccentricity": 0.0002114,
        "meta_inclination": 2.5793,
        "meta_ra_of_asc_node": 103.2849,
        "meta_arg_of_pericenter": 61.7211,
        "meta_mean_anomaly": 160.4779,
        "meta_ephemeris_type": 0,
        "meta_classification_type": "U",
        "meta_norad_cat_id": 43683,
        "meta_element_set_no": 999,
        "meta_rev_at_epoch": 2608,
        "meta_bstar": 0,
        "meta_mean_motion_dot": -2.56e-06,
        "meta_mean_motion_ddot": 0,
        "tle_line1": "1 43683U 18085A   25336.31675993 -.00000256  00000+0  00000+0 0  9990",
        "tle_line2": "2 43683   2.5793 103.2849 0002114  61.7211 160.4779  1.00274107 26087"
      },
      "geometry": {
        "type": "Point",
        "coordinates": [
          119.1173340233343,
          0.713553572065388
        ]
      }
    },
    {
      "type": "Feature",
      "properties": {
        "norad_id": 43706,
        "name": "BEIDOU-3 M17 (C36)",
        "group": "beidou",
        "lat": -22.426294103309672,
        "lon": 171.62577577998766,
        "alt_km": 21515.34159179978,
        "timestamp": "2025-12-02T17:49:12.293268+00:00",
        "meta_object_name": "BEIDOU-3 M17 (C36)",
        "meta_object_id": "2018-093A",
        "meta_epoch": "2025-11-30T05:23:59.265600",
        "meta_mean_motion": 1.86228182,
        "meta_eccentricity": 0.00063751,
        "meta_inclination": 54.1727,
        "meta_ra_of_asc_node": 189.0472,
        "meta_arg_of_pericenter": 306.0351,
        "meta_mean_anomaly": 138.1008,
        "meta_ephemeris_type": 0,
        "meta_classification_type": "U",
        "meta_norad_cat_id": 43706,
        "meta_element_set_no": 999,
        "meta_rev_at_epoch": 4783,
        "meta_bstar": 0,
        "meta_mean_motion_dot": 1.11e-06,
        "meta_mean_motion_ddot": 0,
        "tle_line1": "1 43706U 18093A   25334.22499150  .00000111  00000+0  00000+0 0  9991",
        "tle_line2": "2 43706  54.1727 189.0472 0006375 306.0351 138.1008  1.86228182 47839"
      },
      "geometry": {
        "type": "Point",
        "coordinates": [
          171.62577577998766,
          -22.426294103309672
        ]
      }
    }
  ]
}